{"type": "FeatureCollection", "features": [ {"type": "Feature", "properties": {"norad_id": 41556, "name": "ZIYUAN 3-02 (ZY 3-02)", "group": "resource", "lat": -15.722308055114166, "lon": 68.54641678836528, "alt_km": 510.9119613406492, "timestamp": "2025-12-18T08:58:43.048965+00:00", "meta": {"OBJECT_NAME": "ZIYUAN 3-02 (ZY 3-02)", "OBJECT_ID": "2016-033A", "EPOCH": "2025-12-17T23:34:32.036736", "MEAN_MOTION": 15.21129815, "ECCENTRICITY": 0.00108688, "INCLINATION": 97.4045, "RA_OF_ASC_NODE": 66.0632, "ARG_OF_PERICENTER": 226.7245, "MEAN_ANOMALY": 133.3085, "EPHEMERIS_TYPE": 0, "CLASSIFICATION_TYPE": "U", "NORAD_CAT_ID": 41556, "ELEMENT_SET_NO": 999, "REV_AT_EPOCH": 53043, "BSTAR": 0.00026348933, "MEAN_MOTION_DOT": 5.805e-05, "MEAN_MOTION_DDOT": 0}, "tle": {"line1": "1 41556U 16033A   25351.98231524  .00005805  00000+0  26349-3 0  9998", "line2": "2 41556  97.4045  66.0632 0010868 226.7245 133.3085 15.21129815530439"}}, "geometry": {"type": "Point", "coordinates": [68.54641678836528, -15.722308055114166]}}, {"type": "Feature", "properties": {"norad_id": 41599, "name": "CARTOSAT-2C", "group": "resource", "lat": -63.75676051956248, "lon": -145.88084748854308, "alt_km": 522.8757768359837, "timestamp": "2025-12-18T08:58:43.048975+00:00", "meta": {"OBJECT_NAME": "CARTOSAT-2C", "OBJECT_ID": "2016-040A", "EPOCH": "2025-12-17T22:25:11.495712", "MEAN_MOTION": 15.19161701, "ECCENTRICITY": 0.00111729, "INCLINATION": 97.476, "RA_OF_ASC_NODE": 49.1319, "ARG_OF_PERICENTER": 47.3383, "MEAN_ANOMALY": 312.8791, "EPHEMERIS_TYPE": 0, "CLASSIFICATION_TYPE": "U", "NORAD_CAT_ID": 41599, "ELEMENT_SET_NO": 999, "REV_AT_EPOCH": 52619, "BSTAR": 0.00014788745, "MEAN_MOTION_DOT": 3.044e-05, "MEAN_MOTION_DDOT": 0}, "tle": {"line1": "1 41599U 16040A   25351.93416083  .00003044  00000+0  14789-3 0  9991", "line2": "2 41599  97.4760  49.1319 0011172  47.3383 312.8791 15.19161701526196"}}, "geometry": {"type": "Point", "coordinates": [-145.88084748854308, -63.75676051956248]}}, {"type": "Feature", "properties": {"norad_id": 41601, "name": "SKYSAT-C1", "group": "resource", "lat": -31.242356721857075, "lon": -155.19284018205158, "alt_km": 474.9448027366043, "timestamp": "2025-12-18T08:58:43.048986+00:00", "meta": {"OBJECT_NAME": "SKYSAT-C1", "OBJECT_ID": "2016-040C", "EPOCH": "2025-12-17T16:23:24.027936", "MEAN_MOTION": 15.32679137, "ECCENTRICITY": 0.00018049, "INCLINATION": 96.9821, "RA_OF_ASC_NODE": 28.4184, "ARG_OF_PERICENTER": 359.1942, "MEAN_ANOMALY": 0.9298, "EPHEMERIS_TYPE": 0, "CLASSIFICATION_TYPE": "U", "NORAD_CAT_ID": 41601, "ELEMENT_SET_NO": 999, "REV_AT_EPOCH": 53003, "BSTAR": 0.00023863164, "MEAN_MOTION_DOT": 7.459e-05, "MEAN_MOTION_DDOT": 0}, "tle": {"line1": "1 41601U 16040C   25351.68291699  .00007459  00000+0  23863-3 0  9998", "line2": "2 41601  96.9821  28.4184 0001804 359.1942   0.9298 15.32679137530035"}}, "geometry": {"type": "Point", "coordinates": [-155.19284018205158, -31.242356721857075]}}, {"type": "Feature", "properties": {"norad_id": 41603, "name": "LAPAN-A3", "group": "resource", "lat": -26.26608531389468, "lon": -6.726610348830159, "alt_km": 471.0483602003087, "timestamp": "2025-12-18T08:58:43.048996+00:00", "meta": {"OBJECT_NAME": "LAPAN-A3", "OBJECT_ID": "2016-040E", "EPOCH": "2025-12-17T23:41:08.857248", "MEAN_MOTION": 15.31594094, "ECCENTRICITY": 0.0009135, "INCLINATION": 97.1423, "RA_OF_ASC_NODE": 349.3524, "ARG_OF_PERICENTER": 312.838, "MEAN_ANOMALY": 47.2093, "EPHEMERIS_TYPE": 0, "CLASSIFICATION_TYPE": "U", "NORAD_CAT_ID": 41603, "ELEMENT_SET_NO": 999, "REV_AT_EPOCH": 52706, "BSTAR": 0.00011106052, "MEAN_MOTION_DOT": 3.317e-05, "MEAN_MOTION_DDOT": 0}, "tle": {"line1": "1 41603U 16040E   25351.98690807  .00003317  00000+0  11106-3 0  9993", "line2": "2 41603  97.1423 349.3524 0009135 312.8380  47.2093 15.31594094527061"}}, "geometry": {"type": "Point", "coordinates": [-6.726610348830159, -26.26608531389468]}}, {"type": "Feature", "properties": {"norad_id": 41604, "name": "BIROS", "group": "resource", "lat": -80.3364523212781, "lon": 70.81626041266307, "alt_km": 306.4937039061697, "timestamp": "2025-12-18T08:58:43.049007+00:00", "meta": {"OBJECT_NAME": "BIROS", "OBJECT_ID": "2016-040F", "EPOCH": "2025-12-17T15:13:21.855072", "MEAN_MOTION": 15.91577007, "ECCENTRICITY": 0.0003703, "INCLINATION": 97.0677, "RA_OF_ASC_NODE": 23.2697, "ARG_OF_PERICENTER": 135.7681, "MEAN_ANOMALY": 224.389, "EPHEMERIS_TYPE": 0, "CLASSIFICATION_TYPE": "U", "NORAD_CAT_ID": 41604, "ELEMENT_SET_NO": 999, "REV_AT_EPOCH": 52950, "BSTAR": 0.00056136978, "MEAN_MOTION_DOT": 0.00180274, "MEAN_MOTION_DDOT": 1.3913944e-05}, "tle": {"line1": "1 41604U 16040F   25351.63428073  .00180274  13914-4  56137-3 0  9994", "line2": "2 41604  97.0677  23.2697 0003703 135.7681 224.3890 15.91577007529507"}}, "geometry": {"type": "Point", "coordinates": [70.81626041266307, -80.3364523212781]}}, {"type": "Feature", "properties": {"norad_id": 41727, "name": "GAOFEN-3", "group": "resource", "lat": 75.78545952102584, "lon": -146.42155958455427, "alt_km": 743.3416277491169, "timestamp": "2025-12-18T08:58:43.049017+00:00", "meta": {"OBJECT_NAME": "GAOFEN-3", "OBJECT_ID": "2016-049A", "EPOCH": "2025-12-18T00:11:04.362432", "MEAN_MOTION": 14.42215077, "ECCENTRICITY": 0.00012673, "INCLINATION": 98.4037, "RA_OF_ASC_NODE": 357.514, "ARG_OF_PERICENTER": 58.7158, "MEAN_ANOMALY": 301.4156, "EPHEMERIS_TYPE": 0, "CLASSIFICATION_TYPE": "U", "NORAD_CAT_ID": 41727, "ELEMENT_SET_NO": 999, "REV_AT_EPOCH": 49253, "BSTAR": 3.7821485e-05, "MEAN_MOTION_DOT": 8.1e-07, "MEAN_MOTION_DDOT": 0}, "tle": {"line1": "1 41727U 16049A   25352.00768938  .00000081  00000+0  37821-4 0  9992", "line2": "2 41727  98.4037 357.5140 0001267  58.7158 301.4156 14.42215077492535"}}, "geometry": {"type": "Point", "coordinates": [-146.42155958455427, 75.78545952102584]}}, {"type": "Feature", "properties": {"norad_id": 41771, "name": "SKYSAT-C4", "group": "resource", "lat": -17.162873095889832, "lon": 19.44348032560011, "alt_km": 445.1701753897469, "timestamp": "2025-12-18T08:58:43.049027+00:00", "meta": {"OBJECT_NAME": "SKYSAT-C4", "OBJECT_ID": "2016-058B", "EPOCH": "2025-12-17T14:22:08.091264", "MEAN_MOTION": 15.42388294, "ECCENTRICITY": 0.00019426, "INCLINATION": 96.9369, "RA_OF_ASC_NODE": 16.5506, "ARG_OF_PERICENTER": 131.7444, "MEAN_ANOMALY": 228.3971, "EPHEMERIS_TYPE": 0, "CLASSIFICATION_TYPE": "U", "NORAD_CAT_ID": 41771, "ELEMENT_SET_NO": 999, "REV_AT_EPOCH": 51742, "BSTAR": 0.00028161381, "MEAN_MOTION_DOT": 0.00012085, "MEAN_MOTION_DDOT": 0}, "tle": {"line1": "1 41771U 16058B   25351.59870476  .00012085  00000+0  28161-3 0  9998", "line2": "2 41771  96.9369  16.5506 0001942 131.7444 228.3971 15.42388294517424"}}, "geometry": {"type": "Point", "coordinates": [19.44348032560011, -17.162873095889832]}}, {"type": "Feature", "properties": {"norad_id": 41772, "name": "SKYSAT-C5", "group": "resource", "lat": 82.72426703955247, "lon": -67.47601798304012, "alt_km": 459.0750479522021, "timestamp": "2025-12-18T08:58:43.049038+00:00", "meta": {"OBJECT_NAME": "SKYSAT-C5", "OBJECT_ID": "2016-058C", "EPOCH": "2025-12-17T18:29:23.948448", "MEAN_MOTION": 15.33964959, "ECCENTRICITY": 0.00037641, "INCLINATION": 97.0757, "RA_OF_ASC_NODE": 35.3128, "ARG_OF_PERICENTER": 269.6367, "MEAN_ANOMALY": 90.4445, "EPHEMERIS_TYPE": 0, "CLASSIFICATION_TYPE": "U", "NORAD_CAT_ID": 41772, "ELEMENT_SET_NO": 999, "REV_AT_EPOCH": 51593, "BSTAR": 0.00022831644, "MEAN_MOTION_DOT": 7.429e-05, "MEAN_MOTION_DDOT": 0}, "tle": {"line1": "1 41772U 16058C   25351.77041607  .00007429  00000+0  22832-3 0  9990", "line2": "2 41772  97.0757  35.3128 0003764 269.6367  90.4445 15.33964959515932"}}, "geometry": {"type": "Point", "coordinates": [-67.47601798304012, 82.72426703955247]}}, {"type": "Feature", "properties": {"norad_id": 41773, "name": "SKYSAT-C2", "group": "resource", "lat": 13.333682104559355, "lon": -161.66002012234665, "alt_km": 457.15889498837714, "timestamp": "2025-12-18T08:58:43.049048+00:00", "meta": {"OBJECT_NAME": "SKYSAT-C2", "OBJECT_ID": "2016-058D", "EPOCH": "2025-12-17T19:45:36.795456", "MEAN_MOTION": 15.37384895, "ECCENTRICITY": 0.0003684, "INCLINATION": 97.0355, "RA_OF_ASC_NODE": 16.1351, "ARG_OF_PERICENTER": 21.2199, "MEAN_ANOMALY": 338.9198, "EPHEMERIS_TYPE": 0, "CLASSIFICATION_TYPE": "U", "NORAD_CAT_ID": 41773, "ELEMENT_SET_NO": 999, "REV_AT_EPOCH": 51714, "BSTAR": 0.00027499147, "MEAN_MOTION_DOT": 0.00010004, "MEAN_MOTION_DDOT": 0}, "tle": {"line1": "1 41773U 16058D   25351.82334254  .00010004  00000+0  27499-3 0  9997", "line2": "2 41773  97.0355  16.1351 0003684  21.2199 338.9198 15.37384895517147"}}, "geometry": {"type": "Point", "coordinates": [-161.66002012234665, 13.333682104559355]}}, {"type": "Feature", "properties": {"norad_id": 41774, "name": "SKYSAT-C3", "group": "resource", "lat": 39.50328968876745, "lon": -148.38685984344843, "alt_km": 428.60760117370137, "timestamp": "2025-12-18T08:58:43.049058+00:00", "meta": {"OBJECT_NAME": "SKYSAT-C3", "OBJECT_ID": "2016-058E", "EPOCH": "2025-12-17T19:56:08.360448", "MEAN_MOTION": 15.44576204, "ECCENTRICITY": 0.00018353, "INCLINATION": 96.9293, "RA_OF_ASC_NODE": 25.3403, "ARG_OF_PERICENTER": 107.8799, "MEAN_ANOMALY": 252.2651, "EPHEMERIS_TYPE": 0, "CLASSIFICATION_TYPE": "U", "NORAD_CAT_ID": 41774, "ELEMENT_SET_NO": 999, "REV_AT_EPOCH": 51804, "BSTAR": 0.00034920436, "MEAN_MOTION_DOT": 0.0001616, "MEAN_MOTION_DDOT": 0}, "tle": {"line1": "1 41774U 16058E   25351.83065232  .00016160  00000+0  34920-3 0  9992", "line2": "2 41774  96.9293  25.3403 0001835 107.8799 252.2651 15.44576204518047"}}, "geometry": {"type": "Point", "coordinates": [-148.38685984344843, 39.50328968876745]}}]}